NORAD_CAT_ID,OBJECT_NAME,OBJECT_TYPE,EPOCH,MEAN_MOTION,ECCENTRICITY,INCLINATION,RA_OF_ASC_NODE,ARG_OF_PERICENTER,MEAN_ANOMALY,BSTAR,MEAN_MOTION_DOT,MEAN_MOTION_DDOT,TLE_LINE0,TLE_LINE1,TLE_LINE2,SEMIMAJOR_AXIS,PERIOD,APOGEE,PERIGEE,DECAYED
54167.0,STARLINK-5243,PAYLOAD,2023-12-15 13:28:00,15.08843067,0.0001507,53.2182,73.1526,70.9779,289.1377,2.232e-05,6.7e-07,0.0,0 STARLINK-5243,1 54167U 22141L   23349.56111548  .00000067  00000-0  22320-4 0  9991,2 54167  53.2182  73.1526 0001507  70.9779 289.1377 15.08843067 62661,6917.871,95.437,540.779,538.693,0.0
54167.0,STARLINK-5243,PAYLOAD,2023-12-16 11:43:24,15.0881934,0.0002082,53.22,68.986,57.403,302.7163,0.00028836,4.302e-05,0.0,0 STARLINK-5243,1 54167U 22141L   23350.48848201  .00004302  00000-0  28836-3 0  9990,2 54167  53.2200  68.9860 0002082  57.4030 302.7163 15.08819340 62790,6917.944,95.439,541.249,538.368,0.0
54167.0,STARLINK-5243,PAYLOAD,2023-12-17 11:34:11,15.08839387,0.0001598,53.2175,64.5315,78.7241,281.3931,4.8977e-06,-2.1e-06,0.0,0 STARLINK-5243,1 54167U 22141L   23351.48208061 -.00000210  00000-0  48977-5 0  9990,2 54167  53.2175  64.5315 0001598  78.7241 281.3931 15.08839387 62944,6917.882,95.438,540.853,538.642,0.0
54167.0,STARLINK-5243,PAYLOAD,2023-12-18 11:24:57,15.08854445,0.0001553,53.2188,60.0738,106.4571,253.6592,0.00018212,2.613e-05,0.0,0 STARLINK-5243,1 54167U 22141L   23352.47566341  .00002613  00000-0  18212-3 0  9993,2 54167  53.2188  60.0738 0001553 106.4571 253.6592 15.08854445 63098,6917.836,95.437,540.776,538.627,0.0
54167.0,STARLINK-5243,PAYLOAD,2023-12-19 09:40:22,15.08839468,0.0001536,53.2184,55.9111,112.7403,247.3752,3.2446e-06,-2.36e-06,0.0,0 STARLINK-5243,1 54167U 22141L   23353.40303788 -.00000236  00000-0  32446-5 0  9998,2 54167  53.2184  55.9111 0001536 112.7403 247.3752 15.08839468 63239,6917.882,95.438,540.81,538.684,0.0
54167.0,STARLINK-5243,PAYLOAD,2023-12-20 11:06:33,15.08838575,0.0001451,53.2189,51.1542,106.4469,253.6683,-0.00013216,-2.391e-05,0.0,0 STARLINK-5243,1 54167U 22141L   23354.46288750 -.00002391  00000-0 -13216-3 0  9993,2 54167  53.2189  51.1542 0001451 106.4469 253.6683 15.08838575 63396,6917.885,95.438,540.754,538.746,0.0
54167.0,STARLINK-5243,PAYLOAD,2023-12-21 10:57:20,15.08804273,0.0001602,53.2185,46.6898,88.3272,271.7904,0.00071562,0.00011108,0.0,0 STARLINK-5243,1 54167U 22141L   23355.45648473  .00011108  00000-0  71562-3 0  9997,2 54167  53.2185  46.6898 0001602  88.3272 271.7904 15.08804273 63556,6917.99,95.44,540.963,538.746,0.0
54167.0,STARLINK-5243,PAYLOAD,2023-12-22 10:48:07,15.08839011,0.0001546,53.2188,42.2283,71.0764,289.0396,7.1316e-05,8.47e-06,0.0,0 STARLINK-5243,1 54167U 22141L   23356.45008875  .00000847  00000-0  71316-4 0  9990,2 54167  53.2188  42.2283 0001546  71.0764 289.0396 15.08839011 63691,6917.883,95.438,540.818,538.679,0.0
54167.0,STARLINK-5243,PAYLOAD,2023-12-23 10:38:54,15.08852259,0.0001908,53.2191,37.765,62.5489,297.5697,5.1524e-05,5.32e-06,0.0,0 STARLINK-5243,1 54167U 22141L   23357.44368324  .00000532  00000-0  51524-4 0  9998,2 54167  53.2191  37.7650 0001908  62.5489 297.5697 15.08852259 63847,6917.843,95.437,541.028,538.388,0.0
54167.0,STARLINK-5243,PAYLOAD,2023-12-23 12:14:17,15.08853167,0.0001901,53.2192,37.4667,62.9209,297.1977,5.9116e-05,6.53e-06,0.0,0 STARLINK-5243,1 54167U 22141L   23357.50992206  .00000653  00000-0  59116-4 0  9996,2 54167  53.2192  37.4667 0001901  62.9209 297.1977 15.08853167 63868,6917.84,95.437,541.02,538.39,0.0
54167.0,STARLINK-5243,PAYLOAD,2023-12-24 12:05:04,15.08845788,0.0001755,53.2197,32.9996,82.074,278.0451,7.0252e-05,8.3e-06,0.0,0 STARLINK-5243,1 54167U 22141L   23358.50352275  .00000830  00000-0  70252-4 0  9994,2 54167  53.2197  32.9996 0001755  82.0740 278.0451 15.08845788 64000,6917.863,95.437,540.942,538.514,0.0
54167.0,STARLINK-5243,PAYLOAD,2023-12-25 11:55:51,15.088456,0.0001704,53.219,28.5436,85.9487,274.17,1.5212e-06,-2.64e-06,0.0,0 STARLINK-5243,1 54167U 22141L   23359.49712505 -.00000264  00000-0  15212-5 0  9997,2 54167  53.2190  28.5436 0001704  85.9487 274.1700 15.08845600 64150,6917.863,95.437,540.907,538.549,0.0
54167.0,STARLINK-5243,PAYLOAD,2023-12-26 02:14:20,15.08833616,0.0001684,53.2189,25.8651,107.4145,252.7031,-1.3526e-05,-5.03e-06,0.0,0 STARLINK-5243,1 54167U 22141L   23360.09329249 -.00000503  00000-0 -13526-4 0  9996,2 54167  53.2189  25.8651 0001684 107.4145 252.7031 15.08833616 64248,6917.9,95.438,540.93,538.6,0.0
54167.0,STARLINK-5243,PAYLOAD,2023-12-26 11:46:38,15.08842785,0.0001655,53.2185,24.0851,105.0783,255.0393,-3.2707e-05,-8.09e-06,0.0,0 STARLINK-5243,1 54167U 22141L   23360.49072803 -.00000809  00000-0 -32707-4 0  9992,2 54167  53.2185  24.0851 0001655 105.0783 255.0393 15.08842785 64308,6917.872,95.437,540.882,538.592,0.0
54167.0,STARLINK-5243,PAYLOAD,2023-12-27 06:51:16,15.08841326,0.0001647,53.2181,20.5167,98.0635,262.0544,2.441e-05,1e-06,0.0,0 STARLINK-5243,1 54167U 22141L   23361.28561024  .00000100  00000-0  24410-4 0  9992,2 54167  53.2181  20.5167 0001647  98.0635 262.0544 15.08841326 64433,6917.876,95.437,540.881,538.602,0.0
54167.0,STARLINK-5243,PAYLOAD,2023-12-28 01:55:54,15.08835715,0.0001717,53.2184,16.9487,102.8148,257.3036,3.8205e-05,3.2e-06,0.0,0 STARLINK-5243,1 54167U 22141L   23362.08049526  .00000320  00000-0  38205-4 0  9990,2 54167  53.2184  16.9487 0001717 102.8148 257.3036 15.08835715 64541,6917.893,95.438,540.946,538.571,0.0
54167.0,STARLINK-5243,PAYLOAD,2023-12-28 08:17:27,15.08838264,0.0001684,53.2185,15.7595,101.4531,258.6651,5.4107e-05,5.73e-06,0.0,0 STARLINK-5243,1 54167U 22141L   23362.34545390  .00000573  00000-0  54107-4 0  9998,2 54167  53.2185  15.7595 0001684 101.4531 258.6651 15.08838264 64597,6917.886,95.438,540.916,538.586,0.0
54167.0,STARLINK-5243,PAYLOAD,2023-12-29 08:08:14,15.08839116,0.0001841,53.219,11.3026,101.7786,258.3413,-2.8681e-05,-7.45e-06,0.0,0 STARLINK-5243,1 54167U 22141L   23363.33905979 -.00000745  00000-0 -28681-4 0  9992,2 54167  53.2190  11.3026 0001841 101.7786 258.3413 15.08839116 64730,6917.883,95.438,541.022,538.475,0.0
54167.0,STARLINK-5243,PAYLOAD,2023-12-29 19:15:56,15.08837424,0.0001657,53.2188,9.2225,98.0984,262.0196,4.1313e-05,3.69e-06,0.0,0 STARLINK-5243,1 54167U 22141L   23363.80273967  .00000369  00000-0  41313-4 0  9996,2 54167  53.2188   9.2225 0001657  98.0984 262.0196 15.08837424 64816,6917.888,95.438,540.9,538.607,0.0
54167.0,STARLINK-5243,PAYLOAD,2023-12-30 09:34:24,15.08843847,0.0001699,53.2179,6.5438,100.9798,259.1385,6.1458e-05,6.9e-06,0.0,0 STARLINK-5243,1 54167U 22141L   23364.39889568  .00000690  00000-0  61458-4 0  9990,2 54167  53.2179   6.5438 0001699 100.9798 259.1385 15.08843847 64895,6917.869,95.437,540.909,538.558,0.0
54167.0,STARLINK-5243,PAYLOAD,2023-12-30 22:17:30,15.0883494,0.0001553,53.2179,4.1663,87.9515,272.1655,3.3487e-05,2.45e-06,0.0,0 STARLINK-5243,1 54167U 22141L   23364.92882388  .00000245  00000-0  33487-4 0  9999,2 54167  53.2179   4.1663 0001553  87.9515 272.1655 15.08834940 64977,6917.896,95.438,540.835,538.687,0.0
54167.0,STARLINK-5243,PAYLOAD,2023-12-31 09:25:11,15.08841319,0.0001561,53.2179,2.084,88.904,271.2131,8.0585e-05,9.95e-06,0.0,0 STARLINK-5243,1 54167U 22141L   23365.39249932  .00000995  00000-0  80585-4 0  9996,2 54167  53.2179   2.0840 0001561  88.9040 271.2131 15.08841319 65040,6917.876,95.437,540.821,538.661,0.0
54167.0,STARLINK-5243,PAYLOAD,2024-01-01 06:05:12,15.08845461,0.0001863,53.2184,358.214,124.689,235.4277,8.2402e-05,1.024e-05,0.0,0 STARLINK-5243,1 54167U 22141L   24001.25361381  .00001024  00000-0  82402-4 0  9996,2 54167  53.2184 358.2140 0001863 124.6890 235.4277 15.08845461 65181,6917.864,95.437,541.017,538.44,0.0
54167.0,STARLINK-5243,PAYLOAD,2024-01-02 04:20:36,15.08842185,0.0001515,53.2178,354.0535,95.6148,264.5017,6.0706e-05,6.78e-06,0.0,0 STARLINK-5243,1 54167U 22141L   24002.18097727  .00000678  00000-0  60706-4 0  9996,2 54167  53.2178 354.0535 0001515  95.6148 264.5017 15.08842185 65313,6917.874,95.437,540.787,538.691,0.0
54167.0,STARLINK-5243,PAYLOAD,2024-01-02 09:06:45,15.08844461,0.0001518,53.218,353.1615,93.6784,266.4382,7.9054e-05,9.71e-06,0.0,0 STARLINK-5243,1 54167U 22141L   24002.37969526  .00000971  00000-0  79054-4 0  9994,2 54167  53.2180 353.1615 0001518  93.6784 266.4382 15.08844461 65351,6917.867,95.437,540.782,538.682,0.0
54167.0,STARLINK-5243,PAYLOAD,2024-01-03 08:57:33,15.08842216,0.0001557,53.218,348.7007,107.7057,252.4105,-3.8565e-05,-9.02e-06,0.0,0 STARLINK-5243,1 54167U 22141L   24003.37329904 -.00000902  00000-0 -38565-4 0  9993,2 54167  53.2180 348.7007 0001557 107.7057 252.4105 15.08842216 65498,6917.874,95.437,540.816,538.662,0.0
54167.0,STARLINK-5243,PAYLOAD,2024-01-04 05:37:34,15.08799838,0.0001683,53.2183,344.8339,99.354,260.7643,0.00051985,7.986e-05,0.0,0 STARLINK-5243,1 54167U 22141L   24004.23443032  .00007986  00000-0  51985-3 0  9995,2 54167  53.2183 344.8339 0001683  99.3540 260.7643 15.08799838 65624,6918.003,95.44,541.032,538.704,0.0
54167.0,STARLINK-5243,PAYLOAD,2024-01-04 21:31:25,15.08833506,0.0001526,53.2179,341.8609,101.8589,258.2574,2.8699e-05,1.69e-06,0.0,0 STARLINK-5243,1 54167U 22141L   24004.89682608  .00000169  00000-0  28699-4 0  9994,2 54167  53.2179 341.8609 0001526 101.8589 258.2574 15.08833506 65721,6917.9,95.438,540.821,538.71,0.0
54167.0,STARLINK-5243,PAYLOAD,2024-01-05 03:52:57,15.08838808,0.0001486,53.2177,340.6725,101.6453,258.4705,5.9019e-05,6.51e-06,0.0,0 STARLINK-5243,1 54167U 22141L   24005.16178219  .00000651  00000-0  59019-4 0  9999,2 54167  53.2177 340.6725 0001486 101.6453 258.4705 15.08838808 65771,6917.884,95.438,540.777,538.721,0.0
54167.0,STARLINK-5243,PAYLOAD,2024-01-06 03:43:44,15.08881904,0.0001264,53.2176,336.213,94.8666,265.247,-0.00053167,-8.749e-05,0.0,0 STARLINK-5243,1 54167U 22141L   24006.15537754 -.00008749  00000-0 -53167-3 0  9997,2 54167  53.2176 336.2130 0001264  94.8666 265.2470 15.08881904 65910,6917.752,95.435,540.492,538.743,0.0
